{
  "links" : {
    "next" : "https://api.nasa.gov/neo/rest/v1/feed?start_date=2013-11-16&end_date=2013-11-16&detailed=true&api_key=t0TVs3DtDT2H8Oy2Zy8m2eVrNsAVKAexjcZXUckd",
    "prev" : "https://api.nasa.gov/neo/rest/v1/feed?start_date=2013-11-14&end_date=2013-11-14&detailed=true&api_key=t0TVs3DtDT2H8Oy2Zy8m2eVrNsAVKAexjcZXUckd",
    "self" : "https://api.nasa.gov/neo/rest/v1/feed?start_date=2013-11-15&end_date=2013-11-15&detailed=true&api_key=t0TVs3DtDT2H8Oy2Zy8m2eVrNsAVKAexjcZXUckd"
  },
  "element_count" : 6,
  "near_earth_objects" : {
    "2013-11-15" : [ {
      "links" : {
        "self" : "https://api.nasa.gov/neo/rest/v1/neo/3589591?api_key=t0TVs3DtDT2H8Oy2Zy8m2eVrNsAVKAexjcZXUckd"
      },
      "neo_reference_id" : "3589591",
      "name" : "(2011 WS74)",
      "nasa_jpl_url" : "http://ssd.jpl.nasa.gov/sbdb.cgi?sstr=3589591",
      "absolute_magnitude_h" : 23.9,
      "estimated_diameter" : {
        "kilometers" : {
          "estimated_diameter_min" : 0.04411182,
          "estimated_diameter_max" : 0.0986370281
        },
        "meters" : {
          "estimated_diameter_min" : 44.1118199997,
          "estimated_diameter_max" : 98.6370281305
        },
        "miles" : {
          "estimated_diameter_min" : 0.0274098057,
          "estimated_diameter_max" : 0.0612901888
        },
        "feet" : {
          "estimated_diameter_min" : 144.7238235278,
          "estimated_diameter_max" : 323.6123073718
        }
      },
      "is_potentially_hazardous_asteroid" : false,
      "close_approach_data" : [ {
        "close_approach_date" : "2013-11-15",
        "epoch_date_close_approach" : 1384502400000,
        "relative_velocity" : {
          "kilometers_per_second" : "26.5427342762",
          "kilometers_per_hour" : "95553.8433941504",
          "miles_per_hour" : "59373.4423023264"
        },
        "miss_distance" : {
          "astronomical" : "0.4872297648",
          "lunar" : "189.5323791504",
          "kilometers" : "72888536",
          "miles" : "45290836"
        },
        "orbiting_body" : "Earth"
      } ],
      "orbital_data" : {
        "orbit_id" : "20",
        "orbit_determination_date" : "2017-04-06 08:51:49",
        "orbit_uncertainty" : "4",
        "minimum_orbit_intersection" : ".0180031",
        "jupiter_tisserand_invariant" : "6.141",
        "epoch_osculation" : "2458000.5",
        "eccentricity" : ".3507993056454944",
        "semi_major_axis" : ".9717092200054737",
        "inclination" : "13.75094367481702",
        "ascending_node_longitude" : "67.52576522660648",
        "orbital_period" : "349.8669444758215",
        "perihelion_distance" : ".6308343003382286",
        "perihelion_argument" : "117.7802378567673",
        "aphelion_distance" : "1.312584139672719",
        "perihelion_time" : "2458071.731166679134",
        "mean_anomaly" : "286.7057937042107",
        "mean_motion" : "1.028962597593666",
        "equinox" : "J2000"
      }
    }, {
      "links" : {
        "self" : "https://api.nasa.gov/neo/rest/v1/neo/3653472?api_key=t0TVs3DtDT2H8Oy2Zy8m2eVrNsAVKAexjcZXUckd"
      },
      "neo_reference_id" : "3653472",
      "name" : "(2013 VQ4)",
      "nasa_jpl_url" : "http://ssd.jpl.nasa.gov/sbdb.cgi?sstr=3653472",
      "absolute_magnitude_h" : 21.8,
      "estimated_diameter" : {
        "kilometers" : {
          "estimated_diameter_min" : 0.1160259082,
          "estimated_diameter_max" : 0.2594418179
        },
        "meters" : {
          "estimated_diameter_min" : 116.0259082094,
          "estimated_diameter_max" : 259.4418179074
        },
        "miles" : {
          "estimated_diameter_min" : 0.0720951346,
          "estimated_diameter_max" : 0.1612096218
        },
        "feet" : {
          "estimated_diameter_min" : 380.6624406898,
          "estimated_diameter_max" : 851.1870938635
        }
      },
      "is_potentially_hazardous_asteroid" : false,
      "close_approach_data" : [ {
        "close_approach_date" : "2013-11-15",
        "epoch_date_close_approach" : 1384502400000,
        "relative_velocity" : {
          "kilometers_per_second" : "9.5188813055",
          "kilometers_per_hour" : "34267.9726998447",
          "miles_per_hour" : "21292.7855923007"
        },
        "miss_distance" : {
          "astronomical" : "0.3567651436",
          "lunar" : "138.7816467285",
          "kilometers" : "53371308",
          "miles" : "33163392"
        },
        "orbiting_body" : "Earth"
      } ],
      "orbital_data" : {
        "orbit_id" : "24",
        "orbit_determination_date" : "2017-04-06 08:43:49",
        "orbit_uncertainty" : "4",
        "minimum_orbit_intersection" : ".192926",
        "jupiter_tisserand_invariant" : "5.526",
        "epoch_osculation" : "2458000.5",
        "eccentricity" : ".2896555031228469",
        "semi_major_axis" : "1.11545226710819",
        "inclination" : "13.55560441165318",
        "ascending_node_longitude" : "207.6940492362288",
        "orbital_period" : "430.3035337623271",
        "perihelion_distance" : ".7923553794694467",
        "perihelion_argument" : "343.7485196100598",
        "aphelion_distance" : "1.438549154746933",
        "perihelion_time" : "2458043.105581280622",
        "mean_anomaly" : "324.3553722951861",
        "mean_motion" : ".8366187394566961",
        "equinox" : "J2000"
      }
    }, {
      "links" : {
        "self" : "https://api.nasa.gov/neo/rest/v1/neo/3753874?api_key=t0TVs3DtDT2H8Oy2Zy8m2eVrNsAVKAexjcZXUckd"
      },
      "neo_reference_id" : "3753874",
      "name" : "(2016 LC11)",
      "nasa_jpl_url" : "http://ssd.jpl.nasa.gov/sbdb.cgi?sstr=3753874",
      "absolute_magnitude_h" : 19.4,
      "estimated_diameter" : {
        "kilometers" : {
          "estimated_diameter_min" : 0.3503926411,
          "estimated_diameter_max" : 0.7835017643
        },
        "meters" : {
          "estimated_diameter_min" : 350.3926411083,
          "estimated_diameter_max" : 783.5017643338
        },
        "miles" : {
          "estimated_diameter_min" : 0.2177238258,
          "estimated_diameter_max" : 0.4868452748
        },
        "feet" : {
          "estimated_diameter_min" : 1149.5821926537,
          "estimated_diameter_max" : 2570.543928497
        }
      },
      "is_potentially_hazardous_asteroid" : false,
      "close_approach_data" : [ {
        "close_approach_date" : "2013-11-15",
        "epoch_date_close_approach" : 1384502400000,
        "relative_velocity" : {
          "kilometers_per_second" : "25.5511894398",
          "kilometers_per_hour" : "91984.2819831576",
          "miles_per_hour" : "57155.4556578126"
        },
        "miss_distance" : {
          "astronomical" : "0.3678000646",
          "lunar" : "143.07421875",
          "kilometers" : "55022104",
          "miles" : "34189152"
        },
        "orbiting_body" : "Earth"
      } ],
      "orbital_data" : {
        "orbit_id" : "14",
        "orbit_determination_date" : "2017-04-06 08:25:25",
        "orbit_uncertainty" : "6",
        "minimum_orbit_intersection" : ".198719",
        "jupiter_tisserand_invariant" : "3.991",
        "epoch_osculation" : "2458000.5",
        "eccentricity" : ".5861394360401548",
        "semi_major_axis" : "1.673007380228684",
        "inclination" : "16.4481663238475",
        "ascending_node_longitude" : "117.2273102118079",
        "orbital_period" : "790.3968705441656",
        "perihelion_distance" : ".6923917778904261",
        "perihelion_argument" : "25.0712115341619",
        "aphelion_distance" : "2.653622982566941",
        "perihelion_time" : "2458234.094237175244",
        "mean_anomaly" : "253.6054423834049",
        "mean_motion" : ".4554673903910453",
        "equinox" : "J2000"
      }
    } ]
  }
}